ELEKTRO-L 2             
1 41105U 15074A   17346.58056733 -.00000101  00000-0  00000+0 0  9998
2 41105   0.0674 285.6774 0001607 320.6442 120.1040  1.00272180  7358
